{"fetched_at":"2026-07-16T06:42:33.601Z","source":"https://celestrak.org/NORAD/elements/gp.php?GROUP=oneweb&FORMAT=JSON","constellation":"oneweb","records":[{"OBJECT_NAME":"ONEWEB-0311","OBJECT_ID":"2021-075Y","EPOCH":"2026-07-15T21:00:50.772960","CLASSIFICATION_TYPE":"U","MEAN_MOTION":13.17647588,"ECCENTRICITY":0.00017361,"INCLINATION":87.9143,"RA_OF_ASC_NODE":0.1557,"ARG_OF_PERICENTER":79.071,"MEAN_ANOMALY":281.0617,"EPHEMERIS_TYPE":0,"NORAD_CAT_ID":49097,"ELEMENT_SET_NO":999,"REV_AT_EPOCH":23740,"BSTAR":0.00012340979,"MEAN_MOTION_DOT":6.1e-7,"MEAN_MOTION_DDOT":0},{"OBJECT_NAME":"ONEWEB-0312","OBJECT_ID":"2021-075Z","EPOCH":"2026-07-15T23:12:04.316832","CLASSIFICATION_TYPE":"U","MEAN_MOTION":13.17648415,"ECCENTRICITY":0.00020478,"INCLINATION":87.9142,"RA_OF_ASC_NODE":0.1479,"ARG_OF_PERICENTER":83.9194,"MEAN_ANOMALY":276.2171,"EPHEMERIS_TYPE":0,"NORAD_CAT_ID":49098,"ELEMENT_SET_NO":999,"REV_AT_EPOCH":23739,"BSTAR":0.000012226475,"MEAN_MOTION_DOT":1.8e-7,"MEAN_MOTION_DDOT":0},{"OBJECT_NAME":"ONEWEB-0313","OBJECT_ID":"2021-075AA","EPOCH":"2026-07-15T21:29:47.899392","CLASSIFICATION_TYPE":"U","MEAN_MOTION":13.17649937,"ECCENTRICITY":0.00018227,"INCLINATION":87.9142,"RA_OF_ASC_NODE":0.1666,"ARG_OF_PERICENTER":88.5119,"MEAN_ANOMALY":271.6222,"EPHEMERIS_TYPE":0,"NORAD_CAT_ID":49099,"ELEMENT_SET_NO":999,"REV_AT_EPOCH":23737,"BSTAR":-0.000002557462,"MEAN_MOTION_DOT":1.2e-7,"MEAN_MOTION_DDOT":0},{"OBJECT_NAME":"ONEWEB-0314","OBJECT_ID":"2021-075AB","EPOCH":"2026-07-15T22:30:44.498592","CLASSIFICATION_TYPE":"U","MEAN_MOTION":13.17651425,"ECCENTRICITY":0.00020573,"INCLINATION":87.9155,"RA_OF_ASC_NODE":0.1343,"ARG_OF_PERICENTER":82.5169,"MEAN_ANOMALY":277.6197,"EPHEMERIS_TYPE":0,"NORAD_CAT_ID":49100,"ELEMENT_SET_NO":999,"REV_AT_EPOCH":23735,"BSTAR":0.000090814899,"MEAN_MOTION_DOT":4.8e-7,"MEAN_MOTION_DDOT":0},{"OBJECT_NAME":"ONEWEB-0315","OBJECT_ID":"2021-075AC","EPOCH":"2026-07-15T20:58:06.522240","CLASSIFICATION_TYPE":"U","MEAN_MOTION":13.12441796,"ECCENTRICITY":0.00015811,"INCLINATION":87.8972,"RA_OF_ASC_NODE":344.9414,"ARG_OF_PERICENTER":85.7475,"MEAN_ANOMALY":274.3834,"EPHEMERIS_TYPE":0,"NORAD_CAT_ID":49101,"ELEMENT_SET_NO":999,"REV_AT_EPOCH":23893,"BSTAR":0.00073204716,"MEAN_MOTION_DOT":0.00000276,"MEAN_MOTION_DDOT":0},{"OBJECT_NAME":"ONEWEB-0316","OBJECT_ID":"2021-075AD","EPOCH":"2026-07-15T21:59:14.863200","CLASSIFICATION_TYPE":"U","MEAN_MOTION":13.18686512,"ECCENTRICITY":0.00019521,"INCLINATION":87.9194,"RA_OF_ASC_NODE":329.7427,"ARG_OF_PERICENTER":99.0052,"MEAN_ANOMALY":261.1301,"EPHEMERIS_TYPE":0,"NORAD_CAT_ID":49102,"ELEMENT_SET_NO":999,"REV_AT_EPOCH":24099,"BSTAR":-0.00004376552,"MEAN_MOTION_DOT":-4e-8,"MEAN_MOTION_DDOT":0},{"OBJECT_NAME":"ONEWEB-0317","OBJECT_ID":"2021-075AE","EPOCH":"2026-07-15T21:02:59.221248","CLASSIFICATION_TYPE":"U","MEAN_MOTION":13.12441847,"ECCENTRICITY":0.00024656,"INCLINATION":87.8966,"RA_OF_ASC_NODE":344.9644,"ARG_OF_PERICENTER":107.9432,"MEAN_ANOMALY":252.1965,"EPHEMERIS_TYPE":0,"NORAD_CAT_ID":49103,"ELEMENT_SET_NO":999,"REV_AT_EPOCH":23895,"BSTAR":0.00056739957,"MEAN_MOTION_DOT":0.00000217,"MEAN_MOTION_DDOT":0},{"OBJECT_NAME":"ONEWEB-0318","OBJECT_ID":"2021-075AF","EPOCH":"2026-07-15T20:04:55.930944","CLASSIFICATION_TYPE":"U","MEAN_MOTION":13.18686628,"ECCENTRICITY":0.00017969,"INCLINATION":87.9197,"RA_OF_ASC_NODE":329.7607,"ARG_OF_PERICENTER":92.6146,"MEAN_ANOMALY":267.5192,"EPHEMERIS_TYPE":0,"NORAD_CAT_ID":49104,"ELEMENT_SET_NO":999,"REV_AT_EPOCH":24094,"BSTAR":-0.000059189536,"MEAN_MOTION_DOT":-1e-7,"MEAN_MOTION_DDOT":0},{"OBJECT_NAME":"ONEWEB-0319","OBJECT_ID":"2021-075AG","EPOCH":"2026-07-15T21:03:16.421760","CLASSIFICATION_TYPE":"U","MEAN_MOTION":13.17647493,"ECCENTRICITY":0.00015302,"INCLINATION":87.9144,"RA_OF_ASC_NODE":0.1605,"ARG_OF_PERICENTER":81.3855,"MEAN_ANOMALY":278.745,"EPHEMERIS_TYPE":0,"NORAD_CAT_ID":49105,"ELEMENT_SET_NO":999,"REV_AT_EPOCH":23738,"BSTAR":0.000013758108,"MEAN_MOTION_DOT":1.8e-7,"MEAN_MOTION_DDOT":0},{"OBJECT_NAME":"ONEWEB-0323","OBJECT_ID":"2021-075AH","EPOCH":"2026-07-15T22:25:56.248320","CLASSIFICATION_TYPE":"U","MEAN_MOTION":13.12443087,"ECCENTRICITY":0.00016401,"INCLINATION":87.8972,"RA_OF_ASC_NODE":344.9346,"ARG_OF_PERICENTER":78.7854,"MEAN_ANOMALY":281.3459,"EPHEMERIS_TYPE":0,"NORAD_CAT_ID":49106,"ELEMENT_SET_NO":999,"REV_AT_EPOCH":23832,"BSTAR":0.00098091889,"MEAN_MOTION_DOT":0.00000366,"MEAN_MOTION_DDOT":0},{"OBJECT_NAME":"ONEWEB-0329","OBJECT_ID":"2021-075AJ","EPOCH":"2026-07-15T23:04:45.492096","CLASSIFICATION_TYPE":"U","MEAN_MOTION":13.17648807,"ECCENTRICITY":0.00019154,"INCLINATION":87.9146,"RA_OF_ASC_NODE":0.1442,"ARG_OF_PERICENTER":88.0238,"MEAN_ANOMALY":272.1113,"EPHEMERIS_TYPE":0,"NORAD_CAT_ID":49107,"ELEMENT_SET_NO":999,"REV_AT_EPOCH":23737,"BSTAR":-0.00055912512,"MEAN_MOTION_DOT":-0.00000204,"MEAN_MOTION_DDOT":0},{"OBJECT_NAME":"ONEWEB-0330","OBJECT_ID":"2021-075AK","EPOCH":"2026-07-15T23:09:48.601440","CLASSIFICATION_TYPE":"U","MEAN_MOTION":13.17646821,"ECCENTRICITY":0.00020085,"INCLINATION":87.9147,"RA_OF_ASC_NODE":0.1547,"ARG_OF_PERICENTER":89.5187,"MEAN_ANOMALY":270.6175,"EPHEMERIS_TYPE":0,"NORAD_CAT_ID":49108,"ELEMENT_SET_NO":999,"REV_AT_EPOCH":23741,"BSTAR":0.00012509346,"MEAN_MOTION_DOT":6.1e-7,"MEAN_MOTION_DDOT":0},{"OBJECT_NAME":"ONEWEB-0292","OBJECT_ID":"2021-083A","EPOCH":"2026-07-15T21:13:41.307168","CLASSIFICATION_TYPE":"U","MEAN_MOTION":13.13469655,"ECCENTRICITY":0.00018127,"INCLINATION":87.898,"RA_OF_ASC_NODE":314.5267,"ARG_OF_PERICENTER":96.8654,"MEAN_ANOMALY":263.2681,"EPHEMERIS_TYPE":0,"NORAD_CAT_ID":49186,"ELEMENT_SET_NO":999,"REV_AT_EPOCH":23469,"BSTAR":-0.00065227242,"MEAN_MOTION_DOT":-0.00000225,"MEAN_MOTION_DDOT":0},{"OBJECT_NAME":"ONEWEB-0303","OBJECT_ID":"2021-083B","EPOCH":"2026-07-15T21:49:19.458336","CLASSIFICATION_TYPE":"U","MEAN_MOTION":13.18684544,"ECCENTRICITY":0.00018087,"INCLINATION":87.9194,"RA_OF_ASC_NODE":329.7446,"ARG_OF_PERICENTER":93.987,"MEAN_ANOMALY":266.1469,"EPHEMERIS_TYPE":0,"NORAD_CAT_ID":49187,"ELEMENT_SET_NO":999,"REV_AT_EPOCH":23376,"BSTAR":-0.000085862478,"MEAN_MOTION_DOT":-2.1e-7,"MEAN_MOTION_DDOT":0},{"OBJECT_NAME":"ONEWEB-0306","OBJECT_ID":"2021-083C","EPOCH":"2026-07-15T21:34:46.262784","CLASSIFICATION_TYPE":"U","MEAN_MOTION":13.18684532,"ECCENTRICITY":0.00021097,"INCLINATION":87.9199,"RA_OF_ASC_NODE":329.7358,"ARG_OF_PERICENTER":101.6198,"MEAN_ANOMALY":258.5172,"EPHEMERIS_TYPE":0,"NORAD_CAT_ID":49188,"ELEMENT_SET_NO":999,"REV_AT_EPOCH":23380,"BSTAR":-0.00024639588,"MEAN_MOTION_DOT":-8.4e-7,"MEAN_MOTION_DDOT":0},{"OBJECT_NAME":"ONEWEB-0307","OBJECT_ID":"2021-083D","EPOCH":"2026-07-15T21:05:08.907648","CLASSIFICATION_TYPE":"U","MEAN_MOTION":13.13468376,"ECCENTRICITY":0.00018976,"INCLINATION":87.898,"RA_OF_ASC_NODE":314.5255,"ARG_OF_PERICENTER":96.3069,"MEAN_ANOMALY":263.8277,"EPHEMERIS_TYPE":0,"NORAD_CAT_ID":49189,"ELEMENT_SET_NO":999,"REV_AT_EPOCH":23469,"BSTAR":-0.00017683951,"MEAN_MOTION_DOT":-5.2e-7,"MEAN_MOTION_DDOT":0}]}
